
# Worst residual: 78.11 km
# MJD 60758.000000 (2025 Mar 24  0:00)
A11hoST = A11hlhV = A11hjUj
1 79899U 24999ZYQ 25083.49919926  .00000000  00000-0  00000-0 0 26036
2 79899 037.7614 353.2244 6349868 356.9249 030.0106 00.99650574    02

# Worst residual: 72.40 km
# MJD 60759.000000 (2025 Mar 25  0:00)
A11hoST = A11hlhV = A11hjUj
1 79899U 24999ZYQ 25084.49919926  .00000000  00000-0  00000-0 0 26037
2 79899 037.7350 353.1948 6338824 357.4350 027.2990 00.99648032    03

# Worst residual: 78.54 km
# MJD 60760.000000 (2025 Mar 26  0:00)
A11hoST = A11hlhV = A11hjUj
1 79899U 24999ZYQ 25085.49919926  .00000000  00000-0  00000-0 0 26038
2 79899 037.6904 353.1679 6326249 357.9538 024.5437 00.99639699    04

# Worst residual: 83.93 km
# MJD 60761.000000 (2025 Mar 27  0:00)
A11hoST = A11hlhV = A11hjUj
1 79899U 24999ZYQ 25086.49919926  .00000000  00000-0  00000-0 0 26039
2 79899 037.6521 353.1387 6313714 358.4758 021.7760 00.99637822    02

# Worst residual: 88.64 km
# MJD 60762.000000 (2025 Mar 28  0:00)
A11hoST = A11hlhV = A11hjUj
1 79899U 24999ZYQ 25087.49919926  .00000000  00000-0  00000-0 0 26030
2 79899 037.6126 353.1091 6300764 358.9991 019.0072 00.99635611    00

# Worst residual: 93.18 km
# MJD 60763.000000 (2025 Mar 29  0:00)
A11hoST = A11hlhV = A11hjUj
1 79899U 24999ZYQ 25088.49919926  .00000000  00000-0  00000-0 0 26031
2 79899 037.5719 353.0791 6287363 359.5235 016.2378 00.99632735    02

# Worst residual: 94.95 km
# MJD 60764.000000 (2025 Mar 30  0:00)
A11hoST = A11hlhV = A11hjUj
1 79899U 24999ZYQ 25089.49919926  .00000000  00000-0  00000-0 0 26032
2 79899 037.5230 353.0569 6273416 000.0421 013.4702 00.99623112    01

# Worst residual: 95.56 km
# MJD 60765.000000 (2025 Mar 31  0:00)
A11hoST = A11hlhV = A11hjUj
1 79899U 24999ZYQ 25090.49919926  .00000000  00000-0  00000-0 0 26034
2 79899 037.4909 353.0183 6259517 000.5738 010.6977 00.99614863    03

# Worst residual: 105.35 km
# MJD 60766.000000 (2025 Apr  1  0:00)
A11hoST = A11hlhV = A11hjUj
1 79899U 24999ZYQ 25091.49919926  .00000000  00000-0  00000-0 0 26035
2 79899 037.4425 352.9865 6244165 001.0981 007.9403 00.99619124    08

# Worst residual: 102.68 km
# MJD 60767.000000 (2025 Apr  2  0:00)
A11hoST = A11hlhV = A11hjUj
1 79899U 24999ZYQ 25092.49919926  .00000000  00000-0  00000-0 0 26036
2 79899 037.3964 352.9591 6228985 001.6143 005.1807 00.99601466    07

# Worst residual: 111.45 km
# MJD 60768.000000 (2025 Apr  3  0:00)
A11hoST = A11hlhV = A11hjUj
1 79899U 24999ZYQ 25093.49919926  .00000000  00000-0  00000-0 0 26037
2 79899 037.3504 352.9220 6213110 002.1434 002.4304 00.99606172    00

# Worst residual: 113.79 km
# MJD 60769.000000 (2025 Apr  4  0:00)
A11hoST = A11hlhV = A11hjUj
1 79899U 24999ZYQ 25094.49919926  .00000000  00000-0  00000-0 0 26038
2 79899 037.3030 352.8889 6197058 002.6647 359.6825 00.99598815    06

# Worst residual: 115.68 km
# MJD 60770.000000 (2025 Apr  5  0:00)
A11hoST = A11hlhV = A11hjUj
1 79899U 24999ZYQ 25095.49919926  .00000000  00000-0  00000-0 0 26039
2 79899 037.2548 352.8552 6180722 003.1858 356.9376 00.99591057    08

# Worst residual: 117.25 km
# MJD 60771.000000 (2025 Apr  6  0:00)
A11hoST = A11hlhV = A11hjUj
1 79899U 24999ZYQ 25096.49919926  .00000000  00000-0  00000-0 0 26030
2 79899 037.2059 352.8209 6164122 003.7076 354.1939 00.99583025    09

# Worst residual: 114.99 km
# MJD 60772.000000 (2025 Apr  7  0:00)
A11hoST = A11hlhV = A11hjUj
1 79899U 24999ZYQ 25097.49919926  .00000000  00000-0  00000-0 0 26031
2 79899 037.1668 352.7844 6147636 004.2385 351.4485 00.99571751    07

# Worst residual: 115.51 km
# MJD 60773.000000 (2025 Apr  8  0:00)
A11hoST = A11hlhV = A11hjUj
1 79899U 24999ZYQ 25098.49919926  .00000000  00000-0  00000-0 0 26032
2 79899 037.1091 352.7464 6130439 004.7598 348.7090 00.99561805    09

# Worst residual: 110.85 km
# MJD 60774.000000 (2025 Apr  9  0:00)
A11hoST = A11hlhV = A11hjUj
1 79899U 24999ZYQ 25099.49919926  .00000000  00000-0  00000-0 0 26033
2 79899 037.0573 352.7142 6112765 005.2868 345.9573 00.99543498    07

# Worst residual: 122.16 km
# MJD 60775.000000 (2025 Apr 10  0:00)
A11hoST = A11hlhV = A11hjUj
1 79899U 24999ZYQ 25100.49919926  .00000000  00000-0  00000-0 0 26036
2 79899 037.0020 352.6778 6093929 005.8169 343.2036 00.99547362    07
